QIANFAN-41              
1 62242U 24232F   25282.77033712  .00000120  00000+0  16749-3 0  9990
2 62242  89.0013  47.6385 0014226  23.6768 336.5035 13.50975936 90618
QIANFAN-42              
1 62243U 24232G   25282.77680942  .00000599  00000+0  25294-3 0  9999
2 62243  89.0011  44.6480 0012928 296.4577  63.5289 14.24383704 92264
QIANFAN-43              
1 62244U 24232H   25282.76625975  .00000121  00000+0  16889-3 0  9995
2 62244  89.0017  47.7014 0015897  28.0509 332.1495 13.50977025 59226
QIANFAN-44              
1 62245U 24232J   25282.75385490  .00000127  00000+0  17766-3 0  9991
2 62245  89.0016  47.5144 0014037  26.0461 334.1394 13.50978294 90693
QIANFAN-45              
1 62246U 24232K   25282.72098786  .00000117  00000+0  16295-3 0  9993
2 62246  89.0019  47.6619 0014671  25.4701 334.7170 13.50974913 90613
QIANFAN-46              
1 62247U 24232L   25282.74565122  .00000120  00000+0  16766-3 0  9996
2 62247  89.0015  47.7310 0014921  30.6768 329.5252 13.50975547 90570
QIANFAN-47              
1 62248U 24232M   25282.74978940  .00000134  00000+0  18940-3 0  9994
2 62248  89.0011  47.6661 0015310  29.6522 330.5494 13.50977324 90603
QIANFAN-48              
1 62249U 24232N   25282.71280520  .00000128  00000+0  18011-3 0  9994
2 62249  89.0015  47.6693 0017625  31.4722 328.7480 13.50973117 90607
